STARLINK-31642          
1 59726U 24088U   26068.46287459  .00000328  00000+0  23218-4 0  9990
2 59726  53.1608 141.2302 0001211  92.3922 267.7217 15.30187317103641
NUSHSAT1                
1 63211U 25052B   26068.64700493  .00023034  00000+0  74857-3 0  9997
2 63211  97.4095 325.7239 0005501  84.7512 275.4357 15.31903202 54882
